<?xml version="1.0" encoding="UTF-8"?>
<ndm xmlns:xsi="http://www.w3.org/2001/XMLSchema-instance" xsi:noNamespaceSchemaLocation="https://sanaregistry.org/r/ndmxml_unqualified/ndmxml-2.0.0-master-2.0.xsd">
<omm id="CCSDS_OMM_VERS" version="2.0">
<header><CREATION_DATE/><ORIGINATOR/></header><body><segment><metadata><OBJECT_NAME>KUIPER-00079</OBJECT_NAME><OBJECT_ID>2025-151L</OBJECT_ID><CENTER_NAME>EARTH</CENTER_NAME><REF_FRAME>TEME</REF_FRAME><TIME_SYSTEM>UTC</TIME_SYSTEM><MEAN_ELEMENT_THEORY>SGP4</MEAN_ELEMENT_THEORY></metadata><data><meanElements><EPOCH>2026-01-01T00:39:38.462400</EPOCH><MEAN_MOTION>14.79916965</MEAN_MOTION><ECCENTRICITY>.00118816</ECCENTRICITY><INCLINATION>51.8992</INCLINATION><RA_OF_ASC_NODE>239.7696</RA_OF_ASC_NODE><ARG_OF_PERICENTER>21.5292</ARG_OF_PERICENTER><MEAN_ANOMALY>338.6168</MEAN_ANOMALY></meanElements><tleParameters><EPHEMERIS_TYPE>0</EPHEMERIS_TYPE><CLASSIFICATION_TYPE>U</CLASSIFICATION_TYPE><NORAD_CAT_ID>64826</NORAD_CAT_ID><ELEMENT_SET_NO>999</ELEMENT_SET_NO><REV_AT_EPOCH>2648</REV_AT_EPOCH><BSTAR>-.10517004E-2</BSTAR><MEAN_MOTION_DOT>-.8239E-4</MEAN_MOTION_DOT><MEAN_MOTION_DDOT>0</MEAN_MOTION_DDOT></tleParameters></data></segment></body></omm>
<omm id="CCSDS_OMM_VERS" version="2.0">
<header><CREATION_DATE/><ORIGINATOR/></header><body><segment><metadata><OBJECT_NAME>KUIPER-00080</OBJECT_NAME><OBJECT_ID>2025-151M</OBJECT_ID><CENTER_NAME>EARTH</CENTER_NAME><REF_FRAME>TEME</REF_FRAME><TIME_SYSTEM>UTC</TIME_SYSTEM><MEAN_ELEMENT_THEORY>SGP4</MEAN_ELEMENT_THEORY></metadata><data><meanElements><EPOCH>2026-01-01T22:32:27.425184</EPOCH><MEAN_MOTION>14.79979700</MEAN_MOTION><ECCENTRICITY>.0006381</ECCENTRICITY><INCLINATION>51.8994</INCLINATION><RA_OF_ASC_NODE>235.7446</RA_OF_ASC_NODE><ARG_OF_PERICENTER>43.9991</ARG_OF_PERICENTER><MEAN_ANOMALY>316.1478</MEAN_ANOMALY></meanElements><tleParameters><EPHEMERIS_TYPE>0</EPHEMERIS_TYPE><CLASSIFICATION_TYPE>U</CLASSIFICATION_TYPE><NORAD_CAT_ID>64827</NORAD_CAT_ID><ELEMENT_SET_NO>999</ELEMENT_SET_NO><REV_AT_EPOCH>2542</REV_AT_EPOCH><BSTAR>.96785E-3</BSTAR><MEAN_MOTION_DOT>.7174E-4</MEAN_MOTION_DOT><MEAN_MOTION_DDOT>0</MEAN_MOTION_DDOT></tleParameters></data></segment></body></omm>
<omm id="CCSDS_OMM_VERS" version="2.0">
<header><CREATION_DATE/><ORIGINATOR/></header><body><segment><metadata><OBJECT_NAME>KUIPER-00082</OBJECT_NAME><OBJECT_ID>2025-151N</OBJECT_ID><CENTER_NAME>EARTH</CENTER_NAME><REF_FRAME>TEME</REF_FRAME><TIME_SYSTEM>UTC</TIME_SYSTEM><MEAN_ELEMENT_THEORY>SGP4</MEAN_ELEMENT_THEORY></metadata><data><meanElements><EPOCH>2026-01-01T23:40:37.436160</EPOCH><MEAN_MOTION>14.79945766</MEAN_MOTION><ECCENTRICITY>.00054749</ECCENTRICITY><INCLINATION>51.9002</INCLINATION><RA_OF_ASC_NODE>223.0544</RA_OF_ASC_NODE><ARG_OF_PERICENTER>73.9357</ARG_OF_PERICENTER><MEAN_ANOMALY>286.2208</MEAN_ANOMALY></meanElements><tleParameters><EPHEMERIS_TYPE>0</EPHEMERIS_TYPE><CLASSIFICATION_TYPE>U</CLASSIFICATION_TYPE><NORAD_CAT_ID>64828</NORAD_CAT_ID><ELEMENT_SET_NO>999</ELEMENT_SET_NO><REV_AT_EPOCH>2560</REV_AT_EPOCH><BSTAR>.82765748E-3</BSTAR><MEAN_MOTION_DOT>.6096E-4</MEAN_MOTION_DOT><MEAN_MOTION_DDOT>0</MEAN_MOTION_DDOT></tleParameters></data></segment></body></omm>
<omm id="CCSDS_OMM_VERS" version="2.0">
<header><CREATION_DATE/><ORIGINATOR/></header><body><segment><metadata><OBJECT_NAME>KUIPER-00083</OBJECT_NAME><OBJECT_ID>2025-151P</OBJECT_ID><CENTER_NAME>EARTH</CENTER_NAME><REF_FRAME>TEME</REF_FRAME><TIME_SYSTEM>UTC</TIME_SYSTEM><MEAN_ELEMENT_THEORY>SGP4</MEAN_ELEMENT_THEORY></metadata><data><meanElements><EPOCH>2026-01-02T01:06:08.288928</EPOCH><MEAN_MOTION>14.79936511</MEAN_MOTION><ECCENTRICITY>.00112486</ECCENTRICITY><INCLINATION>51.8996</INCLINATION><RA_OF_ASC_NODE>230.2846</RA_OF_ASC_NODE><ARG_OF_PERICENTER>26.7671</ARG_OF_PERICENTER><MEAN_ANOMALY>333.3870</MEAN_ANOMALY></meanElements><tleParameters><EPHEMERIS_TYPE>0</EPHEMERIS_TYPE><CLASSIFICATION_TYPE>U</CLASSIFICATION_TYPE><NORAD_CAT_ID>64829</NORAD_CAT_ID><ELEMENT_SET_NO>999</ELEMENT_SET_NO><REV_AT_EPOCH>2669</REV_AT_EPOCH><BSTAR>.89106005E-3</BSTAR><MEAN_MOTION_DOT>.6583E-4</MEAN_MOTION_DOT><MEAN_MOTION_DDOT>0</MEAN_MOTION_DDOT></tleParameters></data></segment></body></omm>
<omm id="CCSDS_OMM_VERS" version="2.0">
<header><CREATION_DATE/><ORIGINATOR/></header><body><segment><metadata><OBJECT_NAME>KUIPER-00084</OBJECT_NAME><OBJECT_ID>2025-151Q</OBJECT_ID><CENTER_NAME>EARTH</CENTER_NAME><REF_FRAME>TEME</REF_FRAME><TIME_SYSTEM>UTC</TIME_SYSTEM><MEAN_ELEMENT_THEORY>SGP4</MEAN_ELEMENT_THEORY></metadata><data><meanElements><EPOCH>2026-01-02T08:00:01.999872</EPOCH><MEAN_MOTION>14.79836059</MEAN_MOTION><ECCENTRICITY>.00090538</ECCENTRICITY><INCLINATION>51.8990</INCLINATION><RA_OF_ASC_NODE>238.9997</RA_OF_ASC_NODE><ARG_OF_PERICENTER>4.6721</ARG_OF_PERICENTER><MEAN_ANOMALY>145.0761</MEAN_ANOMALY></meanElements><tleParameters><EPHEMERIS_TYPE>0</EPHEMERIS_TYPE><CLASSIFICATION_TYPE>U</CLASSIFICATION_TYPE><NORAD_CAT_ID>64830</NORAD_CAT_ID><ELEMENT_SET_NO>999</ELEMENT_SET_NO><REV_AT_EPOCH>523</REV_AT_EPOCH><BSTAR>-.34720976E-2</BSTAR><MEAN_MOTION_DOT>-.26547E-3</MEAN_MOTION_DOT><MEAN_MOTION_DDOT>0</MEAN_MOTION_DDOT></tleParameters></data></segment></body></omm>
<omm id="CCSDS_OMM_VERS" version="2.0">
<header><CREATION_DATE/><ORIGINATOR/></header><body><segment><metadata><OBJECT_NAME>KUIPER-00085</OBJECT_NAME><OBJECT_ID>2025-151R</OBJECT_ID><CENTER_NAME>EARTH</CENTER_NAME><REF_FRAME>TEME</REF_FRAME><TIME_SYSTEM>UTC</TIME_SYSTEM><MEAN_ELEMENT_THEORY>SGP4</MEAN_ELEMENT_THEORY></metadata><data><meanElements><EPOCH>2026-01-02T06:58:14.994912</EPOCH><MEAN_MOTION>14.79918862</MEAN_MOTION><ECCENTRICITY>.00080239</ECCENTRICITY><INCLINATION>51.9017</INCLINATION><RA_OF_ASC_NODE>221.7286</RA_OF_ASC_NODE><ARG_OF_PERICENTER>46.8551</ARG_OF_PERICENTER><MEAN_ANOMALY>313.3081</MEAN_ANOMALY></meanElements><tleParameters><EPHEMERIS_TYPE>0</EPHEMERIS_TYPE><CLASSIFICATION_TYPE>U</CLASSIFICATION_TYPE><NORAD_CAT_ID>64831</NORAD_CAT_ID><ELEMENT_SET_NO>999</ELEMENT_SET_NO><REV_AT_EPOCH>2564</REV_AT_EPOCH><BSTAR>.11725041E-2</BSTAR><MEAN_MOTION_DOT>.8728E-4</MEAN_MOTION_DOT><MEAN_MOTION_DDOT>0</MEAN_MOTION_DDOT></tleParameters></data></segment></body></omm>
<omm id="CCSDS_OMM_VERS" version="2.0">
<header><CREATION_DATE/><ORIGINATOR/></header><body><segment><metadata><OBJECT_NAME>KUIPER-00086</OBJECT_NAME><OBJECT_ID>2025-151S</OBJECT_ID><CENTER_NAME>EARTH</CENTER_NAME><REF_FRAME>TEME</REF_FRAME><TIME_SYSTEM>UTC</TIME_SYSTEM><MEAN_ELEMENT_THEORY>SGP4</MEAN_ELEMENT_THEORY></metadata><data><meanElements><EPOCH>2026-01-02T00:13:35.210784</EPOCH><MEAN_MOTION>14.79941876</MEAN_MOTION><ECCENTRICITY>.00111307</ECCENTRICITY><INCLINATION>51.8997</INCLINATION><RA_OF_ASC_NODE>232.9533</RA_OF_ASC_NODE><ARG_OF_PERICENTER>23.5119</ARG_OF_PERICENTER><MEAN_ANOMALY>336.6350</MEAN_ANOMALY></meanElements><tleParameters><EPHEMERIS_TYPE>0</EPHEMERIS_TYPE><CLASSIFICATION_TYPE>U</CLASSIFICATION_TYPE><NORAD_CAT_ID>64832</NORAD_CAT_ID><ELEMENT_SET_NO>999</ELEMENT_SET_NO><REV_AT_EPOCH>2546</REV_AT_EPOCH><BSTAR>.88082592E-3</BSTAR><MEAN_MOTION_DOT>.6505E-4</MEAN_MOTION_DOT><MEAN_MOTION_DDOT>0</MEAN_MOTION_DDOT></tleParameters></data></segment></body></omm>
<omm id="CCSDS_OMM_VERS" version="2.0">
<header><CREATION_DATE/><ORIGINATOR/></header><body><segment><metadata><OBJECT_NAME>KUIPER-00087</OBJECT_NAME><OBJECT_ID>2025-151T</OBJECT_ID><CENTER_NAME>EARTH</CENTER_NAME><REF_FRAME>TEME</REF_FRAME><TIME_SYSTEM>UTC</TIME_SYSTEM><MEAN_ELEMENT_THEORY>SGP4</MEAN_ELEMENT_THEORY></metadata><data><meanElements><EPOCH>2026-01-02T07:09:48.907872</EPOCH><MEAN_MOTION>14.79867971</MEAN_MOTION><ECCENTRICITY>.00005115</ECCENTRICITY><INCLINATION>51.8987</INCLINATION><RA_OF_ASC_NODE>214.1654</RA_OF_ASC_NODE><ARG_OF_PERICENTER>91.0449</ARG_OF_PERICENTER><MEAN_ANOMALY>269.0572</MEAN_ANOMALY></meanElements><tleParameters><EPHEMERIS_TYPE>0</EPHEMERIS_TYPE><CLASSIFICATION_TYPE>U</CLASSIFICATION_TYPE><NORAD_CAT_ID>64833</NORAD_CAT_ID><ELEMENT_SET_NO>999</ELEMENT_SET_NO><REV_AT_EPOCH>2574</REV_AT_EPOCH><BSTAR>.16872843E-3</BSTAR><MEAN_MOTION_DOT>.1064E-4</MEAN_MOTION_DOT><MEAN_MOTION_DDOT>0</MEAN_MOTION_DDOT></tleParameters></data></segment></body></omm>

</ndm>
