KUIPER-00079            
1 64826U 25151L   26001.02752850 -.00008239  00000+0 -10517-2 0  9997
2 64826  51.8992 239.7696 0011881  21.5292 338.6168 14.79916965 26486
KUIPER-00080            
1 64827U 25151M   26001.93920631  .00007174  00000+0  96785-3 0  9999
2 64827  51.8994 235.7446 0006381  43.9991 316.1478 14.79979700 25425
KUIPER-00082            
1 64828U 25151N   26001.98654440  .00006096  00000+0  82766-3 0  9993
2 64828  51.9002 223.0544 0005474  73.9357 286.2208 14.79945766 25600
KUIPER-00083            
1 64829U 25151P   26002.04592927  .00006583  00000+0  89106-3 0  9999
2 64829  51.8996 230.2846 0011248  26.7671 333.3870 14.79936511 26695
KUIPER-00084            
1 64830U 25151Q   26002.33335648 -.00026547  00000+0 -34721-2 0  9994
2 64830  51.8990 238.9997 0009053   4.6721 145.0761 14.79836059  5235
KUIPER-00085            
1 64831U 25151R   26002.29045133  .00008728  00000+0  11725-2 0  9995
2 64831  51.9017 221.7286 0008023  46.8551 313.3081 14.79918862 25648
KUIPER-00086            
1 64832U 25151S   26002.00943531  .00006505  00000+0  88083-3 0  9997
2 64832  51.8997 232.9533 0011130  23.5119 336.6350 14.79941876 25467
KUIPER-00087            
1 64833U 25151T   26002.29848273  .00001064  00000+0  16873-3 0  9999
2 64833  51.8987 214.1654 0000511  91.0449 269.0572 14.79867971 25749
